[{"OBJECT_NAME":"STARLINK-31137","OBJECT_ID":"2023-211V","EPOCH":"2026-03-09T02:28:04.097280","MEAN_MOTION":15.27567968,"ECCENTRICITY":7.632e-5,"INCLINATION":43.0029,"RA_OF_ASC_NODE":88.6918,"ARG_OF_PERICENTER":265.5034,"MEAN_ANOMALY":94.573,"EPHEMERIS_TYPE":0,"CLASSIFICATION_TYPE":"U","NORAD_CAT_ID":58686,"ELEMENT_SET_NO":999,"REV_AT_EPOCH":12237,"BSTAR":-3.1195087e-5,"MEAN_MOTION_DOT":-1.12e-5,"MEAN_MOTION_DDOT":0},{"OBJECT_NAME":"ELECTRON KICK STAGE R\/B","OBJECT_ID":"2024-047B","EPOCH":"2026-03-09T21:11:54.433824","MEAN_MOTION":15.27307897,"ECCENTRICITY":0.00092426,"INCLINATION":97.6338,"RA_OF_ASC_NODE":46.9382,"ARG_OF_PERICENTER":20.6031,"MEAN_ANOMALY":339.5579,"EPHEMERIS_TYPE":0,"CLASSIFICATION_TYPE":"U","NORAD_CAT_ID":59225,"ELEMENT_SET_NO":999,"REV_AT_EPOCH":10999,"BSTAR":0.00091229405,"MEAN_MOTION_DOT":0.00024409,"MEAN_MOTION_DDOT":0}]
